<?xml version="1.0" encoding="UTF-8"?>
<ndm xmlns:xsi="http://www.w3.org/2001/XMLSchema-instance" xsi:noNamespaceSchemaLocation="https://sanaregistry.org/r/ndmxml_unqualified/ndmxml-2.0.0-master-2.0.xsd">
<omm id="CCSDS_OMM_VERS" version="2.0">
<header><CREATION_DATE/><ORIGINATOR/></header><body><segment><metadata><OBJECT_NAME>KUIPER-00035</OBJECT_NAME><OBJECT_ID>2025-088AA</OBJECT_ID><CENTER_NAME>EARTH</CENTER_NAME><REF_FRAME>TEME</REF_FRAME><TIME_SYSTEM>UTC</TIME_SYSTEM><MEAN_ELEMENT_THEORY>SGP4</MEAN_ELEMENT_THEORY></metadata><data><meanElements><EPOCH>2025-08-10T14:00:01.000224</EPOCH><MEAN_MOTION>14.88176977</MEAN_MOTION><ECCENTRICITY>.0006597</ECCENTRICITY><INCLINATION>51.8945</INCLINATION><RA_OF_ASC_NODE>327.7847</RA_OF_ASC_NODE><ARG_OF_PERICENTER>104.9109</ARG_OF_PERICENTER><MEAN_ANOMALY>6.9530</MEAN_ANOMALY></meanElements><tleParameters><EPHEMERIS_TYPE>0</EPHEMERIS_TYPE><CLASSIFICATION_TYPE>U</CLASSIFICATION_TYPE><NORAD_CAT_ID>63748</NORAD_CAT_ID><ELEMENT_SET_NO>999</ELEMENT_SET_NO><REV_AT_EPOCH>1624</REV_AT_EPOCH><BSTAR>-.34445E-2</BSTAR><MEAN_MOTION_DOT>-.32172E-3</MEAN_MOTION_DOT><MEAN_MOTION_DDOT>0</MEAN_MOTION_DDOT></tleParameters></data></segment></body></omm>
<omm id="CCSDS_OMM_VERS" version="2.0">
<header><CREATION_DATE/><ORIGINATOR/></header><body><segment><metadata><OBJECT_NAME>KUIPER-00037</OBJECT_NAME><OBJECT_ID>2025-088AB</OBJECT_ID><CENTER_NAME>EARTH</CENTER_NAME><REF_FRAME>TEME</REF_FRAME><TIME_SYSTEM>UTC</TIME_SYSTEM><MEAN_ELEMENT_THEORY>SGP4</MEAN_ELEMENT_THEORY></metadata><data><meanElements><EPOCH>2025-08-10T14:00:01.000224</EPOCH><MEAN_MOTION>14.89179396</MEAN_MOTION><ECCENTRICITY>.0006661</ECCENTRICITY><INCLINATION>51.8951</INCLINATION><RA_OF_ASC_NODE>326.8617</RA_OF_ASC_NODE><ARG_OF_PERICENTER>49.2880</ARG_OF_PERICENTER><MEAN_ANOMALY>28.0454</MEAN_ANOMALY></meanElements><tleParameters><EPHEMERIS_TYPE>0</EPHEMERIS_TYPE><CLASSIFICATION_TYPE>U</CLASSIFICATION_TYPE><NORAD_CAT_ID>63749</NORAD_CAT_ID><ELEMENT_SET_NO>999</ELEMENT_SET_NO><REV_AT_EPOCH>1704</REV_AT_EPOCH><BSTAR>-.29209E-2</BSTAR><MEAN_MOTION_DOT>-.28018E-3</MEAN_MOTION_DOT><MEAN_MOTION_DDOT>0</MEAN_MOTION_DDOT></tleParameters></data></segment></body></omm>
<omm id="CCSDS_OMM_VERS" version="2.0">
<header><CREATION_DATE/><ORIGINATOR/></header><body><segment><metadata><OBJECT_NAME>KUIPER-00038</OBJECT_NAME><OBJECT_ID>2025-088AC</OBJECT_ID><CENTER_NAME>EARTH</CENTER_NAME><REF_FRAME>TEME</REF_FRAME><TIME_SYSTEM>UTC</TIME_SYSTEM><MEAN_ELEMENT_THEORY>SGP4</MEAN_ELEMENT_THEORY></metadata><data><meanElements><EPOCH>2025-08-10T14:00:01.000224</EPOCH><MEAN_MOTION>15.26760014</MEAN_MOTION><ECCENTRICITY>.0005548</ECCENTRICITY><INCLINATION>51.8783</INCLINATION><RA_OF_ASC_NODE>317.6474</RA_OF_ASC_NODE><ARG_OF_PERICENTER>111.2785</ARG_OF_PERICENTER><MEAN_ANOMALY>219.6088</MEAN_ANOMALY></meanElements><tleParameters><EPHEMERIS_TYPE>0</EPHEMERIS_TYPE><CLASSIFICATION_TYPE>U</CLASSIFICATION_TYPE><NORAD_CAT_ID>63750</NORAD_CAT_ID><ELEMENT_SET_NO>999</ELEMENT_SET_NO><REV_AT_EPOCH>1616</REV_AT_EPOCH><BSTAR>-.57158E-1</BSTAR><MEAN_MOTION_DOT>-.1386015E-1</MEAN_MOTION_DOT><MEAN_MOTION_DDOT>0</MEAN_MOTION_DDOT></tleParameters></data></segment></body></omm>
<omm id="CCSDS_OMM_VERS" version="2.0">
<header><CREATION_DATE/><ORIGINATOR/></header><body><segment><metadata><OBJECT_NAME>KUIPER-00039</OBJECT_NAME><OBJECT_ID>2025-134A</OBJECT_ID><CENTER_NAME>EARTH</CENTER_NAME><REF_FRAME>TEME</REF_FRAME><TIME_SYSTEM>UTC</TIME_SYSTEM><MEAN_ELEMENT_THEORY>SGP4</MEAN_ELEMENT_THEORY></metadata><data><meanElements><EPOCH>2025-08-10T08:58:50.214720</EPOCH><MEAN_MOTION>15.35379282</MEAN_MOTION><ECCENTRICITY>.0007328</ECCENTRICITY><INCLINATION>51.8687</INCLINATION><RA_OF_ASC_NODE>100.1122</RA_OF_ASC_NODE><ARG_OF_PERICENTER>284.8702</ARG_OF_PERICENTER><MEAN_ANOMALY>75.1472</MEAN_ANOMALY></meanElements><tleParameters><EPHEMERIS_TYPE>0</EPHEMERIS_TYPE><CLASSIFICATION_TYPE>U</CLASSIFICATION_TYPE><NORAD_CAT_ID>64500</NORAD_CAT_ID><ELEMENT_SET_NO>999</ELEMENT_SET_NO><REV_AT_EPOCH>814</REV_AT_EPOCH><BSTAR>.67841E-3</BSTAR><MEAN_MOTION_DOT>.23378E-3</MEAN_MOTION_DOT><MEAN_MOTION_DDOT>0</MEAN_MOTION_DDOT></tleParameters></data></segment></body></omm>
<omm id="CCSDS_OMM_VERS" version="2.0">
<header><CREATION_DATE/><ORIGINATOR/></header><body><segment><metadata><OBJECT_NAME>KUIPER-00040</OBJECT_NAME><OBJECT_ID>2025-134B</OBJECT_ID><CENTER_NAME>EARTH</CENTER_NAME><REF_FRAME>TEME</REF_FRAME><TIME_SYSTEM>UTC</TIME_SYSTEM><MEAN_ELEMENT_THEORY>SGP4</MEAN_ELEMENT_THEORY></metadata><data><meanElements><EPOCH>2025-08-10T00:00:02.000160</EPOCH><MEAN_MOTION>15.14932248</MEAN_MOTION><ECCENTRICITY>.0013163</ECCENTRICITY><INCLINATION>51.8780</INCLINATION><RA_OF_ASC_NODE>104.2257</RA_OF_ASC_NODE><ARG_OF_PERICENTER>290.6975</ARG_OF_PERICENTER><MEAN_ANOMALY>88.2345</MEAN_ANOMALY></meanElements><tleParameters><EPHEMERIS_TYPE>0</EPHEMERIS_TYPE><CLASSIFICATION_TYPE>U</CLASSIFICATION_TYPE><NORAD_CAT_ID>64501</NORAD_CAT_ID><ELEMENT_SET_NO>999</ELEMENT_SET_NO><REV_AT_EPOCH>805</REV_AT_EPOCH><BSTAR>.6159E-3</BSTAR><MEAN_MOTION_DOT>.11353E-3</MEAN_MOTION_DOT><MEAN_MOTION_DDOT>0</MEAN_MOTION_DDOT></tleParameters></data></segment></body></omm>
<omm id="CCSDS_OMM_VERS" version="2.0">
<header><CREATION_DATE/><ORIGINATOR/></header><body><segment><metadata><OBJECT_NAME>KUIPER-00041</OBJECT_NAME><OBJECT_ID>2025-134C</OBJECT_ID><CENTER_NAME>EARTH</CENTER_NAME><REF_FRAME>TEME</REF_FRAME><TIME_SYSTEM>UTC</TIME_SYSTEM><MEAN_ELEMENT_THEORY>SGP4</MEAN_ELEMENT_THEORY></metadata><data><meanElements><EPOCH>2025-08-10T14:00:01.000224</EPOCH><MEAN_MOTION>15.11011356</MEAN_MOTION><ECCENTRICITY>.0009458</ECCENTRICITY><INCLINATION>51.8789</INCLINATION><RA_OF_ASC_NODE>101.8868</RA_OF_ASC_NODE><ARG_OF_PERICENTER>287.7083</ARG_OF_PERICENTER><MEAN_ANOMALY>163.5092</MEAN_ANOMALY></meanElements><tleParameters><EPHEMERIS_TYPE>0</EPHEMERIS_TYPE><CLASSIFICATION_TYPE>U</CLASSIFICATION_TYPE><NORAD_CAT_ID>64502</NORAD_CAT_ID><ELEMENT_SET_NO>999</ELEMENT_SET_NO><REV_AT_EPOCH>813</REV_AT_EPOCH><BSTAR>-.59127E-1</BSTAR><MEAN_MOTION_DOT>-.926379E-2</MEAN_MOTION_DOT><MEAN_MOTION_DDOT>0</MEAN_MOTION_DDOT></tleParameters></data></segment></body></omm>
<omm id="CCSDS_OMM_VERS" version="2.0">
<header><CREATION_DATE/><ORIGINATOR/></header><body><segment><metadata><OBJECT_NAME>KUIPER-00042</OBJECT_NAME><OBJECT_ID>2025-134D</OBJECT_ID><CENTER_NAME>EARTH</CENTER_NAME><REF_FRAME>TEME</REF_FRAME><TIME_SYSTEM>UTC</TIME_SYSTEM><MEAN_ELEMENT_THEORY>SGP4</MEAN_ELEMENT_THEORY></metadata><data><meanElements><EPOCH>2025-08-10T14:00:01.000224</EPOCH><MEAN_MOTION>15.17112463</MEAN_MOTION><ECCENTRICITY>.0011189</ECCENTRICITY><INCLINATION>51.8770</INCLINATION><RA_OF_ASC_NODE>100.3851</RA_OF_ASC_NODE><ARG_OF_PERICENTER>290.7139</ARG_OF_PERICENTER><MEAN_ANOMALY>235.6593</MEAN_ANOMALY></meanElements><tleParameters><EPHEMERIS_TYPE>0</EPHEMERIS_TYPE><CLASSIFICATION_TYPE>U</CLASSIFICATION_TYPE><NORAD_CAT_ID>64503</NORAD_CAT_ID><ELEMENT_SET_NO>999</ELEMENT_SET_NO><REV_AT_EPOCH>815</REV_AT_EPOCH><BSTAR>.63026E-3</BSTAR><MEAN_MOTION_DOT>.12378E-3</MEAN_MOTION_DOT><MEAN_MOTION_DDOT>0</MEAN_MOTION_DDOT></tleParameters></data></segment></body></omm>
<omm id="CCSDS_OMM_VERS" version="2.0">
<header><CREATION_DATE/><ORIGINATOR/></header><body><segment><metadata><OBJECT_NAME>KUIPER-00043</OBJECT_NAME><OBJECT_ID>2025-134E</OBJECT_ID><CENTER_NAME>EARTH</CENTER_NAME><REF_FRAME>TEME</REF_FRAME><TIME_SYSTEM>UTC</TIME_SYSTEM><MEAN_ELEMENT_THEORY>SGP4</MEAN_ELEMENT_THEORY></metadata><data><meanElements><EPOCH>2025-08-10T09:05:52.762560</EPOCH><MEAN_MOTION>15.34824517</MEAN_MOTION><ECCENTRICITY>.0007984</ECCENTRICITY><INCLINATION>51.8702</INCLINATION><RA_OF_ASC_NODE>100.1500</RA_OF_ASC_NODE><ARG_OF_PERICENTER>294.7580</ARG_OF_PERICENTER><MEAN_ANOMALY>65.2574</MEAN_ANOMALY></meanElements><tleParameters><EPHEMERIS_TYPE>0</EPHEMERIS_TYPE><CLASSIFICATION_TYPE>U</CLASSIFICATION_TYPE><NORAD_CAT_ID>64504</NORAD_CAT_ID><ELEMENT_SET_NO>999</ELEMENT_SET_NO><REV_AT_EPOCH>852</REV_AT_EPOCH><BSTAR>.58072E-3</BSTAR><MEAN_MOTION_DOT>.19594E-3</MEAN_MOTION_DOT><MEAN_MOTION_DDOT>0</MEAN_MOTION_DDOT></tleParameters></data></segment></body></omm>

</ndm>
