KUIPER-00035            
1 63748U 25088AA  25222.58334491 -.00032172  00000+0 -34445-2 0  9999
2 63748  51.8945 327.7847 0006597 104.9109   6.9530 14.88176977 16245
KUIPER-00037            
1 63749U 25088AB  25222.58334491 -.00028018  00000+0 -29209-2 0  9996
2 63749  51.8951 326.8617 0006661  49.2880  28.0454 14.89179396 17045
KUIPER-00038            
1 63750U 25088AC  25222.58334491 -.01386015  00000+0 -57158-1 0  9996
2 63750  51.8783 317.6474 0005548 111.2785 219.6088 15.26760014 16164
KUIPER-00039            
1 64500U 25134A   25222.37419230  .00023378  00000+0  67841-3 0  9993
2 64500  51.8687 100.1122 0007328 284.8702  75.1472 15.35379282  8144
KUIPER-00040            
1 64501U 25134B   25222.00002315  .00011353  00000+0  61590-3 0  9991
2 64501  51.8780 104.2257 0013163 290.6975  88.2345 15.14932248  8052
KUIPER-00041            
1 64502U 25134C   25222.58334491 -.00926379  00000+0 -59127-1 0  9994
2 64502  51.8789 101.8868 0009458 287.7083 163.5092 15.11011356  8132
KUIPER-00042            
1 64503U 25134D   25222.58334491  .00012378  00000+0  63026-3 0  9993
2 64503  51.8770 100.3851 0011189 290.7139 235.6593 15.17112463  8155
KUIPER-00043            
1 64504U 25134E   25222.37908290  .00019594  00000+0  58072-3 0  9997
2 64504  51.8702 100.1500 0007984 294.7580  65.2574 15.34824517  8528
